H1 CPF  1  DGF 2022 10 30 10  8031 larets     NONE      
H2   304206 5557    27944 2022 10 30 00 00 00 2022 11 06 00 00 00    30 1 1  0 0 0
H5  0.0650
H9
10 0 59886  43200.000000  0       5236007.938       2770228.999      -3839051.356
10 0 59886  43230.000000  0       5150503.130       2667132.509      -4023586.852
10 0 59886  43260.000000  0       5059318.792       2561717.661      -4204011.738
10 0 59886  43290.000000  0       4962538.914       2454116.729      -4380142.827
10 0 59886  43320.000000  0       4860253.708       2344463.777      -4551801.434
10 0 59886  43350.000000  0       4752559.522       2232894.486      -4718813.552
10 0 59886  43380.000000  0       4639558.739       2119545.987      -4881010.023
10 0 59886  43410.000000  0       4521359.668       2004556.696      -5038226.707
10 0 59886  43440.000000  0       4398076.430       1888066.139      -5190304.642
10 0 59886  43470.000000  0       4269828.840       1770214.783      -5337090.197
10 0 59886  43500.000000  0       4136742.282       1651143.869      -5478435.219
10 0 59886  43530.000000  0       3998947.579       1530995.243      -5614197.174
10 0 59886  43560.000000  0       3856580.856       1409911.188      -5744239.289
10 0 59886  43590.000000  0       3709783.397       1288034.251      -5868430.682
10 0 59886  43620.000000  0       3558701.498       1165507.081      -5986646.482
10 0 59886  43650.000000  0       3403486.305       1042472.259      -6098767.947
10 0 59886  43680.000000  0       3244293.665        919072.132      -6204682.569
10 0 59886  43710.000000  0       3081283.960        795448.654      -6304284.179
10 0 59886  43740.000000  0       2914621.945        671743.226      -6397473.041
10 0 59886  43770.000000  0       2744476.573        548096.532      -6484155.950
10 0 59886  43800.000000  0       2571020.821        424648.384      -6564246.306
10 0 59886  43830.000000  0       2394431.512        301537.566      -6637664.196
10 0 59886  43860.000000  0       2214889.138        178901.683      -6704336.464
10 0 59886  43890.000000  0       2032577.674         56877.009      -6764196.774
10 0 59886  43920.000000  0       1847684.390        -64401.666      -6817185.677
10 0 59886  43950.000000  0       1660399.654       -184801.178      -6863250.663
10 0 59886  43980.000000  0       1470916.733       -304190.137      -6902346.205
10 0 59886  44010.000000  0       1279431.594       -422439.065      -6934433.795
10 0 59886  44040.000000  0       1086142.698       -539420.537      -6959481.975
10 0 59886  44070.000000  0        891250.799       -655009.306      -6977466.356
10 0 59886  44100.000000  0        694958.741       -769082.444      -6988369.639
10 0 59886  44130.000000  0        497471.246       -881519.460      -6992181.627
10 0 59886  44160.000000  0        298994.705       -992202.429      -6988899.231
10 0 59886  44190.000000  0         99736.970      -1101016.109      -6978526.468
10 0 59886  44220.000000  0       -100092.861      -1207848.061      -6961074.459
10 0 59886  44250.000000  0       -300284.662      -1312588.757      -6936561.417
10 0 59886  44280.000000  0       -500627.495      -1415131.695      -6905012.626
10 0 59886  44310.000000  0       -700909.832      -1515373.508      -6866460.422
10 0 59886  44340.000000  0       -900919.773      -1613214.056      -6820944.151
10 0 59886  44370.000000  0      -1100445.266      -1708556.538      -6768510.137
10 0 59886  44400.000000  0      -1299274.329      -1801307.575      -6709211.635
10 0 59886  44430.000000  0      -1497195.274      -1891377.309      -6643108.777
10 0 59886  44460.000000  0      -1693996.924      -1978679.481      -6570268.514
10 0 59886  44490.000000  0      -1889468.838      -2063131.515      -6490764.552
10 0 59886  44520.000000  0      -2083401.525      -2144654.591      -6404677.283
10 0 59886  44550.000000  0      -2275586.670      -2223173.721      -6312093.711
10 0 59886  44580.000000  0      -2465817.354      -2298617.816      -6213107.370
10 0 59886  44610.000000  0      -2653888.270      -2370919.752      -6107818.238
10 0 59886  44640.000000  0      -2839595.950      -2440016.430      -5996332.647
10 0 59886  44670.000000  0      -3022738.981      -2505848.827      -5878763.180
10 0 59886  44700.000000  0      -3203118.225      -2568362.057      -5755228.567
10 0 59886  44730.000000  0      -3380537.041      -2627505.406      -5625853.573
10 0 59886  44760.000000  0      -3554801.496      -2683232.381      -5490768.877
10 0 59886  44790.000000  0      -3725720.582      -2735500.745      -5350110.944
10 0 59886  44820.000000  0      -3893106.427      -2784272.545      -5204021.896
10 0 59886  44850.000000  0      -4056774.497      -2829514.139      -5052649.374
10 0 59886  44880.000000  0      -4216543.809      -2871196.216      -4896146.397
10 0 59886  44910.000000  0      -4372237.127      -2909293.816      -4734671.211
10 0 59886  44940.000000  0      -4523681.168      -2943786.336      -4568387.142
10 0 59886  44970.000000  0      -4670706.797      -2974657.540      -4397462.430
10 0 59886  45000.000000  0      -4813149.215      -3001895.557      -4222070.069
10 0 59886  45030.000000  0      -4950848.160      -3025492.881      -4042387.635
10 0 59886  45060.000000  0      -5083648.079      -3045446.358      -3858597.113
10 0 59886  45090.000000  0      -5211398.321      -3061757.174      -3670884.713
10 0 59886  45120.000000  0      -5333953.305      -3074430.835      -3479440.689
10 0 59886  45150.000000  0      -5451172.696      -3083477.139      -3284459.147
10 0 59886  45180.000000  0      -5562921.572      -3088910.154      -3086137.850
10 0 59886  45210.000000  0      -5669070.582      -3090748.173      -2884678.020
10 0 59886  45240.000000  0      -5769496.098      -3089013.681      -2680284.133
10 0 59886  45270.000000  0      -5864080.372      -3083733.307      -2473163.711
10 0 59886  45300.000000  0      -5952711.668      -3074937.775      -2263527.119
10 0 59886  45330.000000  0      -6035284.406      -3062661.851      -2051587.345
10 0 59886  45360.000000  0      -6111699.294      -3046944.279      -1837559.787
10 0 59886  45390.000000  0      -6181863.448      -3027827.724      -1621662.028
10 0 59886  45420.000000  0      -6245690.512      -3005358.693      -1404113.615
10 0 59886  45450.000000  0      -6303100.767      -2979587.470      -1185135.832
10 0 59886  45480.000000  0      -6354021.226      -2950568.031       -964951.471
10 0 59886  45510.000000  0      -6398385.737      -2918357.962       -743784.605
10 0 59886  45540.000000  0      -6436135.064      -2883018.376       -521860.358
10 0 59886  45570.000000  0      -6467216.973      -2844613.817       -299404.667
10 0 59886  45600.000000  0      -6491586.298      -2803212.167        -76644.055
10 0 59886  45630.000000  0      -6509205.013      -2758884.547        146194.613
10 0 59886  45660.000000  0      -6520042.278      -2711705.214        368884.361
10 0 59886  45690.000000  0      -6524074.495      -2661751.452        591198.342
10 0 59886  45720.000000  0      -6521285.338      -2609103.463        812910.072
10 0 59886  45750.000000  0      -6511665.791      -2553844.254       1033793.673
10 0 59886  45780.000000  0      -6495214.160      -2496059.519       1253624.102
10 0 59886  45810.000000  0      -6471936.090      -2435837.516       1472177.388
10 0 59886  45840.000000  0      -6441844.565      -2373268.950       1689230.865
10 0 59886  45870.000000  0      -6404959.903      -2308446.842       1904563.404
10 0 59886  45900.000000  0      -6361309.743      -2241466.404       2117955.633
10 0 59886  45930.000000  0      -6310929.027      -2172424.907       2329190.171
10 0 59886  45960.000000  0      -6253859.973      -2101421.553       2538051.846
10 0 59886  45990.000000  0      -6190152.036      -2028557.336       2744327.920
10 0 59886  46020.000000  0      -6119861.870      -1953934.912       2947808.312
10 0 59886  46050.000000  0      -6043053.269      -1877658.459       3148285.816
10 0 59886  46080.000000  0      -5959797.104      -1799833.536       3345556.317
10 0 59886  46110.000000  0      -5870171.249      -1720566.949       3539418.999
10 0 59886  46140.000000  0      -5774260.503      -1639966.604       3729676.550
10 0 59886  46170.000000  0      -5672156.500      -1558141.366       3916135.363
10 0 59886  46200.000000  0      -5563957.614      -1475200.919       4098605.726
10 0 59886  46230.000000  0      -5449768.862      -1391255.625       4276902.019
10 0 59886  46260.000000  0      -5329701.791      -1306416.378       4450842.890
10 0 59886  46290.000000  0      -5203874.370      -1220794.469       4620251.445
10 0 59886  46320.000000  0      -5072410.865      -1134501.441       4784955.420
10 0 59886  46350.000000  0      -4935441.714      -1047648.950       4944787.354
10 0 59886  46380.000000  0      -4793103.394       -960348.625       5099584.758
10 0 59886  46410.000000  0      -4645538.279       -872711.932       5249190.273
10 0 59886  46440.000000  0      -4492894.496       -784850.029       5393451.836
10 0 59886  46470.000000  0      -4335325.772       -696873.636       5532222.824
10 0 59886  46500.000000  0      -4172991.266       -608892.889       5665362.207
10 0 59886  46530.000000  0      -4006055.409       -521017.213       5792734.679
10 0 59886  46560.000000  0      -3834687.734       -433355.186       5914210.796
10 0 59886  46590.000000  0      -3659062.697       -346014.407       6029667.100
10 0 59886  46620.000000  0      -3479359.496       -259101.368       6138986.243
10 0 59886  46650.000000  0      -3295761.885       -172721.325       6242057.098
10 0 59886  46680.000000  0      -3108457.979        -86978.176       6338774.868
10 0 59886  46710.000000  0      -2917640.066         -1974.340       6429041.185
10 0 59886  46740.000000  0      -2723504.403         82189.363       6512764.208
10 0 59886  46770.000000  0      -2526251.015        165413.824       6589858.710
99
